[{"OBJECT_NAME":"STARLINK-3131","OBJECT_ID":"2021-104V","EPOCH":"2026-03-09T16:08:15.663264","MEAN_MOTION":15.08838642,"ECCENTRICITY":0.00013262,"INCLINATION":53.2176,"RA_OF_ASC_NODE":229.2092,"ARG_OF_PERICENTER":100.5072,"MEAN_ANOMALY":259.607,"EPHEMERIS_TYPE":0,"CLASSIFICATION_TYPE":"U","NORAD_CAT_ID":49427,"ELEMENT_SET_NO":999,"REV_AT_EPOCH":23863,"BSTAR":4.3278518e-5,"MEAN_MOTION_DOT":4.01e-6,"MEAN_MOTION_DDOT":0},{"OBJECT_NAME":"OBJECT B","OBJECT_ID":"2025-013B","EPOCH":"2026-03-09T22:32:54.215232","MEAN_MOTION":15.10568465,"ECCENTRICITY":0.00132175,"INCLINATION":97.6475,"RA_OF_ASC_NODE":238.3035,"ARG_OF_PERICENTER":355.2799,"MEAN_ANOMALY":4.8303,"EPHEMERIS_TYPE":0,"CLASSIFICATION_TYPE":"U","NORAD_CAT_ID":62730,"ELEMENT_SET_NO":999,"REV_AT_EPOCH":6234,"BSTAR":0.00034549224,"MEAN_MOTION_DOT":5.648e-5,"MEAN_MOTION_DDOT":0}]
